{
  "type": "FeatureCollection",
  "features": [
    {
      "type": "Feature",
      "properties": {
        "norad_id": 35022,
        "name": "COSMOS 2251 DEB",
        "group": "cosmos-2251-debris",
        "lat": 21.16370420021882,
        "lon": -20.311416465526097,
        "alt_km": 719.8479462703954,
        "timestamp": "2025-12-06T18:50:10.565581+00:00",
        "meta_object_name": "COSMOS 2251 DEB",
        "meta_object_id": "1993-036AGK",
        "meta_epoch": "2025-12-02T17:45:34.658208",
        "meta_mean_motion": 14.60763876,
        "meta_eccentricity": 0.00472905,
        "meta_inclination": 74.0262,
        "meta_ra_of_asc_node": 341.0512,
        "meta_arg_of_pericenter": 183.6288,
        "meta_mean_anomaly": 176.4543,
        "meta_ephemeris_type": 0,
        "meta_classification_type": "U",
        "meta_norad_cat_id": 35022,
        "meta_element_set_no": 999,
        "meta_rev_at_epoch": 58997,
        "meta_bstar": 0.00056913021,
        "meta_mean_motion_dot": 2.791e-05,
        "meta_mean_motion_ddot": 0,
        "tle_line1": "1 35022U 93036AGK 25336.73998447  .00002791  00000+0  56913-3 0  9998",
        "tle_line2": "2 35022  74.0262 341.0512 0047290 183.6288 176.4543 14.60763876589975"
      },
      "geometry": {
        "type": "Point",
        "coordinates": [
          -20.311416465526097,
          21.16370420021882
        ]
      }
    },
    {
      "type": "Feature",
      "properties": {
        "norad_id": 35023,
        "name": "COSMOS 2251 DEB",
        "group": "cosmos-2251-debris",
        "lat": -5.62909577018735,
        "lon": 46.21007023364614,
        "alt_km": 597.4165416893902,
        "timestamp": "2025-12-06T18:50:10.565592+00:00",
        "meta_object_name": "COSMOS 2251 DEB",
        "meta_object_id": "1993-036AGL",
        "meta_epoch": "2025-12-05T22:47:29.827392",
        "meta_mean_motion": 14.94758722,
        "meta_eccentricity": 0.00342835,
        "meta_inclination": 74.0379,
        "meta_ra_of_asc_node": 226.2762,
        "meta_arg_of_pericenter": 305.3901,
        "meta_mean_anomaly": 68.2501,
        "meta_ephemeris_type": 0,
        "meta_classification_type": "U",
        "meta_norad_cat_id": 35023,
        "meta_element_set_no": 999,
        "meta_rev_at_epoch": 88178,
        "meta_bstar": 0.0023386425,
        "meta_mean_motion_dot": 0.00025774,
        "meta_mean_motion_ddot": 0,
        "tle_line1": "1 35023U 93036AGL 25339.94965078  .00025774  00000+0  23386-2 0  9992",
        "tle_line2": "2 35023  74.0379 226.2762 0034283 305.3901  68.2501 14.94758722881786"
      },
      "geometry": {
        "type": "Point",
        "coordinates": [
          46.21007023364614,
          -5.62909577018735
        ]
      }
    },
    {
      "type": "Feature",
      "properties": {
        "norad_id": 35025,
        "name": "COSMOS 2251 DEB",
        "group": "cosmos-2251-debris",
        "lat": 17.343951773830465,
        "lon": 79.7560324718911,
        "alt_km": 600.6881664526181,
        "timestamp": "2025-12-06T18:50:10.565602+00:00",
        "meta_object_name": "COSMOS 2251 DEB",
        "meta_object_id": "1993-036AGN",
        "meta_epoch": "2025-12-05T13:24:32.861952",
        "meta_mean_motion": 14.72652613,
        "meta_eccentricity": 0.00847967,
        "meta_inclination": 73.9386,
        "meta_ra_of_asc_node": 76.9946,
        "meta_arg_of_pericenter": 351.3968,
        "meta_mean_anomaly": 8.5744,
        "meta_ephemeris_type": 0,
        "meta_classification_type": "U",
        "meta_norad_cat_id": 35025,
        "meta_element_set_no": 999,
        "meta_rev_at_epoch": 88537,
        "meta_bstar": 0.00071609127,
        "meta_mean_motion_dot": 4.797e-05,
        "meta_mean_motion_ddot": 0,
        "tle_line1": "1 35025U 93036AGN 25339.55871368  .00004797  00000+0  71609-3 0  9993",
        "tle_line2": "2 35025  73.9386  76.9946 0084796 351.3968   8.5744 14.72652613885379"
      },
      "geometry": {
        "type": "Point",
        "coordinates": [
          79.7560324718911,
          17.343951773830465
        ]
      }
    },
    {
      "type": "Feature",
      "properties": {
        "norad_id": 35026,
        "name": "COSMOS 2251 DEB",
        "group": "cosmos-2251-debris",
        "lat": -59.996628868135694,
        "lon": -59.651455019096666,
        "alt_km": 770.7420727069166,
        "timestamp": "2025-12-06T18:50:10.565613+00:00",
        "meta_object_name": "COSMOS 2251 DEB",
        "meta_object_id": "1993-036AGP",
        "meta_epoch": "2025-12-06T07:51:48.078720",
        "meta_mean_motion": 14.53617344,
        "meta_eccentricity": 0.00822532,
        "meta_inclination": 74.0464,
        "meta_ra_of_asc_node": 330.9073,
        "meta_arg_of_pericenter": 86.1829,
        "meta_mean_anomaly": 338.5159,
        "meta_ephemeris_type": 0,
        "meta_classification_type": "U",
        "meta_norad_cat_id": 35026,
        "meta_element_set_no": 999,
        "meta_rev_at_epoch": 88050,
        "meta_bstar": 0.00012460817,
        "meta_mean_motion_dot": 5.15e-06,
        "meta_mean_motion_ddot": 0,
        "tle_line1": "1 35026U 93036AGP 25340.32763980  .00000515  00000+0  12461-3 0  9996",
        "tle_line2": "2 35026  74.0464 330.9073 0082253  86.1829 338.5159 14.53617344880505"
      },
      "geometry": {
        "type": "Point",
        "coordinates": [
          -59.651455019096666,
          -59.996628868135694
        ]
      }
    },
    {
      "type": "Feature",
      "properties": {
        "norad_id": 35028,
        "name": "COSMOS 2251 DEB",
        "group": "cosmos-2251-debris",
        "lat": -14.640610244742176,
        "lon": -82.00547816475905,
        "alt_km": 691.0334515884197,
        "timestamp": "2025-12-06T18:50:10.565623+00:00",
        "meta_object_name": "COSMOS 2251 DEB",
        "meta_object_id": "1993-036AGR",
        "meta_epoch": "2025-12-03T07:31:08.250816",
        "meta_mean_motion": 14.56553316,
        "meta_eccentricity": 0.0082193,
        "meta_inclination": 74.0379,
        "meta_ra_of_asc_node": 288.8678,
        "meta_arg_of_pericenter": 65.1818,
        "meta_mean_anomaly": 84.6032,
        "meta_ephemeris_type": 0,
        "meta_classification_type": "U",
        "meta_norad_cat_id": 35028,
        "meta_element_set_no": 999,
        "meta_rev_at_epoch": 88148,
        "meta_bstar": 0.00016513,
        "meta_mean_motion_dot": 7.39e-06,
        "meta_mean_motion_ddot": 0,
        "tle_line1": "1 35028U 93036AGR 25337.31328994  .00000739  00000+0  16513-3 0  9995",
        "tle_line2": "2 35028  74.0379 288.8678 0082193  65.1818  84.6032 14.56553316881480"
      },
      "geometry": {
        "type": "Point",
        "coordinates": [
          -82.00547816475905,
          -14.640610244742176
        ]
      }
    },
    {
      "type": "Feature",
      "properties": {
        "norad_id": 35031,
        "name": "COSMOS 2251 DEB",
        "group": "cosmos-2251-debris",
        "lat": -65.91454115943421,
        "lon": -129.57665820014404,
        "alt_km": 767.9619066356208,
        "timestamp": "2025-12-06T18:50:10.565633+00:00",
        "meta_object_name": "COSMOS 2251 DEB",
        "meta_object_id": "1993-036AGU",
        "meta_epoch": "2025-12-06T02:28:30.271296",
        "meta_mean_motion": 14.38280865,
        "meta_eccentricity": 0.00185684,
        "meta_inclination": 74.0385,
        "meta_ra_of_asc_node": 271.4894,
        "meta_arg_of_pericenter": 6.3258,
        "meta_mean_anomaly": 353.8127,
        "meta_ephemeris_type": 0,
        "meta_classification_type": "U",
        "meta_norad_cat_id": 35031,
        "meta_element_set_no": 999,
        "meta_rev_at_epoch": 65188,
        "meta_bstar": 0.00033805858,
        "meta_mean_motion_dot": 1.004e-05,
        "meta_mean_motion_ddot": 0,
        "tle_line1": "1 35031U 93036AGU 25340.10312814  .00001004  00000+0  33806-3 0  9994",
        "tle_line2": "2 35031  74.0385 271.4894 0018568   6.3258 353.8127 14.38280865651880"
      },
      "geometry": {
        "type": "Point",
        "coordinates": [
          -129.57665820014404,
          -65.91454115943421
        ]
      }
    },
    {
      "type": "Feature",
      "properties": {
        "norad_id": 35032,
        "name": "COSMOS 2251 DEB",
        "group": "cosmos-2251-debris",
        "lat": 69.07144937649085,
        "lon": 68.00195136787295,
        "alt_km": 734.3188579400685,
        "timestamp": "2025-12-06T18:50:10.565643+00:00",
        "meta_object_name": "COSMOS 2251 DEB",
        "meta_object_id": "1993-036AGV",
        "meta_epoch": "2025-12-06T02:09:39.305664",
        "meta_mean_motion": 14.58639519,
        "meta_eccentricity": 0.00687921,
        "meta_inclination": 73.8519,
        "meta_ra_of_asc_node": 20.0853,
        "meta_arg_of_pericenter": 232.4618,
        "meta_mean_anomaly": 157.3877,
        "meta_ephemeris_type": 0,
        "meta_classification_type": "U",
        "meta_norad_cat_id": 35032,
        "meta_element_set_no": 999,
        "meta_rev_at_epoch": 87577,
        "meta_bstar": 0.0015774319,
        "meta_mean_motion_dot": 7.57e-05,
        "meta_mean_motion_ddot": 0,
        "tle_line1": "1 35032U 93036AGV 25340.09003826  .00007570  00000+0  15774-2 0  9990",
        "tle_line2": "2 35032  73.8519  20.0853 0068792 232.4618 157.3877 14.58639519875777"
      },
      "geometry": {
        "type": "Point",
        "coordinates": [
          68.00195136787295,
          69.07144937649085
        ]
      }
    }
  ]
}